[{"OBJECT_NAME":"STAR VIBE","OBJECT_ID":"2023-001A","EPOCH":"2026-04-05T06:39:01.802016","MEAN_MOTION":15.40695723,"ECCENTRICITY":0.00062625,"INCLINATION":97.323,"RA_OF_ASC_NODE":159.5311,"ARG_OF_PERICENTER":33.1213,"MEAN_ANOMALY":327.0425,"EPHEMERIS_TYPE":0,"CLASSIFICATION_TYPE":"U","NORAD_CAT_ID":55009,"ELEMENT_SET_NO":999,"REV_AT_EPOCH":18099,"BSTAR":0.00045676849,"MEAN_MOTION_DOT":0.00018595,"MEAN_MOTION_DDOT":0},{"OBJECT_NAME":"BRO-8","OBJECT_ID":"2023-001C","EPOCH":"2026-04-05T06:34:34.446720","MEAN_MOTION":15.44986912,"ECCENTRICITY":0.00062128,"INCLINATION":97.3282,"RA_OF_ASC_NODE":159.6176,"ARG_OF_PERICENTER":40.4749,"MEAN_ANOMALY":319.6961,"EPHEMERIS_TYPE":0,"CLASSIFICATION_TYPE":"U","NORAD_CAT_ID":55011,"ELEMENT_SET_NO":999,"REV_AT_EPOCH":18093,"BSTAR":0.00083322466,"MEAN_MOTION_DOT":0.00039347,"MEAN_MOTION_DDOT":0},{"OBJECT_NAME":"CONNECTA T1.2","OBJECT_ID":"2023-001D","EPOCH":"2026-04-05T03:21:27.862848","MEAN_MOTION":15.46594134,"ECCENTRICITY":0.00059695,"INCLINATION":97.3329,"RA_OF_ASC_NODE":164.7754,"ARG_OF_PERICENTER":14.2722,"MEAN_ANOMALY":345.8695,"EPHEMERIS_TYPE":0,"CLASSIFICATION_TYPE":"U","NORAD_CAT_ID":55012,"ELEMENT_SET_NO":999,"REV_AT_EPOCH":18124,"BSTAR":0.00093007087,"MEAN_MOTION_DOT":0.0004645,"MEAN_MOTION_DDOT":0},{"OBJECT_NAME":"BIRKELAND","OBJECT_ID":"2023-001G","EPOCH":"2026-04-05T06:42:22.636224","MEAN_MOTION":15.38780335,"ECCENTRICITY":0.00069351,"INCLINATION":97.3395,"RA_OF_ASC_NODE":163.1151,"ARG_OF_PERICENTER":23.0346,"MEAN_ANOMALY":337.121,"EPHEMERIS_TYPE":0,"CLASSIFICATION_TYPE":"U","NORAD_CAT_ID":55015,"ELEMENT_SET_NO":999,"REV_AT_EPOCH":18113,"BSTAR":0.0003126973,"MEAN_MOTION_DOT":0.00011919,"MEAN_MOTION_DDOT":0},{"OBJECT_NAME":"ION SCV-008","OBJECT_ID":"2023-001AU","EPOCH":"2026-04-05T05:24:23.468832","MEAN_MOTION":15.27673295,"ECCENTRICITY":0.00137154,"INCLINATION":97.5673,"RA_OF_ASC_NODE":190.3922,"ARG_OF_PERICENTER":269.3705,"MEAN_ANOMALY":90.5962,"EPHEMERIS_TYPE":0,"CLASSIFICATION_TYPE":"U","NORAD_CAT_ID":55051,"ELEMENT_SET_NO":999,"REV_AT_EPOCH":18019,"BSTAR":0.00034453301,"MEAN_MOTION_DOT":9.268e-5,"MEAN_MOTION_DDOT":0},{"OBJECT_NAME":"ION SCV-007","OBJECT_ID":"2023-001BD","EPOCH":"2026-04-05T04:38:33.946944","MEAN_MOTION":14.77486555,"ECCENTRICITY":0.00117316,"INCLINATION":97.9069,"RA_OF_ASC_NODE":159.6376,"ARG_OF_PERICENTER":205.9405,"MEAN_ANOMALY":154.1219,"EPHEMERIS_TYPE":0,"CLASSIFICATION_TYPE":"U","NORAD_CAT_ID":55060,"ELEMENT_SET_NO":999,"REV_AT_EPOCH":17547,"BSTAR":0.00011380353,"MEAN_MOTION_DOT":7.61e-6,"MEAN_MOTION_DDOT":0},{"OBJECT_NAME":"HUYGENS","OBJECT_ID":"2023-001CN","EPOCH":"2026-04-05T06:42:27.486720","MEAN_MOTION":15.38788494,"ECCENTRICITY":0.00091136,"INCLINATION":97.3303,"RA_OF_ASC_NODE":162.4378,"ARG_OF_PERICENTER":356.912,"MEAN_ANOMALY":3.2067,"EPHEMERIS_TYPE":0,"CLASSIFICATION_TYPE":"U","NORAD_CAT_ID":55093,"ELEMENT_SET_NO":999,"REV_AT_EPOCH":18115,"BSTAR":0.000382969,"MEAN_MOTION_DOT":0.00014634,"MEAN_MOTION_DDOT":0},{"OBJECT_NAME":"SHARJAHSAT-1","OBJECT_ID":"2023-001CZ","EPOCH":"2026-04-05T05:58:07.882176","MEAN_MOTION":15.46521749,"ECCENTRICITY":0.00059209,"INCLINATION":97.323,"RA_OF_ASC_NODE":163.1289,"ARG_OF_PERICENTER":23.1138,"MEAN_ANOMALY":337.0377,"EPHEMERIS_TYPE":0,"CLASSIFICATION_TYPE":"U","NORAD_CAT_ID":55104,"ELEMENT_SET_NO":999,"REV_AT_EPOCH":18121,"BSTAR":0.00051118679,"MEAN_MOTION_DOT":0.00025358,"MEAN_MOTION_DDOT":0},{"OBJECT_NAME":"HORUS 1","OBJECT_ID":"2023-025A","EPOCH":"2026-04-05T07:26:33.184320","MEAN_MOTION":15.23533332,"ECCENTRICITY":0.00025628,"INCLINATION":97.3491,"RA_OF_ASC_NODE":171.4207,"ARG_OF_PERICENTER":113.4416,"MEAN_ANOMALY":246.7091,"EPHEMERIS_TYPE":0,"CLASSIFICATION_TYPE":"U","NORAD_CAT_ID":55690,"ELEMENT_SET_NO":999,"REV_AT_EPOCH":17295,"BSTAR":0.00037395334,"MEAN_MOTION_DOT":8.867e-5,"MEAN_MOTION_DDOT":0},{"OBJECT_NAME":"HORUS 2","OBJECT_ID":"2023-032A","EPOCH":"2026-04-02T14:02:53.635200","MEAN_MOTION":15.23587317,"ECCENTRICITY":0.00018917,"INCLINATION":97.357,"RA_OF_ASC_NODE":169.4901,"ARG_OF_PERICENTER":93.1718,"MEAN_ANOMALY":266.9735,"EPHEMERIS_TYPE":0,"CLASSIFICATION_TYPE":"U","NORAD_CAT_ID":55844,"ELEMENT_SET_NO":999,"REV_AT_EPOCH":16997,"BSTAR":0.00048650546,"MEAN_MOTION_DOT":0.00011579,"MEAN_MOTION_DDOT":0},{"OBJECT_NAME":"GLOBAL-19","OBJECT_ID":"2023-041B","EPOCH":"2026-04-05T04:28:24.781152","MEAN_MOTION":15.3927894,"ECCENTRICITY":0.00033559,"INCLINATION":42.0018,"RA_OF_ASC_NODE":267.7547,"ARG_OF_PERICENTER":262.6319,"MEAN_ANOMALY":97.414,"EPHEMERIS_TYPE":0,"CLASSIFICATION_TYPE":"U","NORAD_CAT_ID":55982,"ELEMENT_SET_NO":999,"REV_AT_EPOCH":17068,"BSTAR":0.00055414891,"MEAN_MOTION_DOT":0.00021893,"MEAN_MOTION_DDOT":0},{"OBJECT_NAME":"BRO-9","OBJECT_ID":"2023-054H","EPOCH":"2026-04-05T07:25:59.599776","MEAN_MOTION":15.70923744,"ECCENTRICITY":8.827e-5,"INCLINATION":97.3032,"RA_OF_ASC_NODE":9.2642,"ARG_OF_PERICENTER":141.6591,"MEAN_ANOMALY":218.4735,"EPHEMERIS_TYPE":0,"CLASSIFICATION_TYPE":"U","NORAD_CAT_ID":56185,"ELEMENT_SET_NO":999,"REV_AT_EPOCH":16756,"BSTAR":0.0012403301,"MEAN_MOTION_DOT":0.00157156,"MEAN_MOTION_DDOT":0},{"OBJECT_NAME":"ION SCV-010","OBJECT_ID":"2023-054Q","EPOCH":"2026-04-05T05:40:36.317280","MEAN_MOTION":15.25550415,"ECCENTRICITY":0.00148348,"INCLINATION":97.3867,"RA_OF_ASC_NODE":345.666,"ARG_OF_PERICENTER":101.0095,"MEAN_ANOMALY":259.2813,"EPHEMERIS_TYPE":0,"CLASSIFICATION_TYPE":"U","NORAD_CAT_ID":56192,"ELEMENT_SET_NO":999,"REV_AT_EPOCH":16507,"BSTAR":0.00030297459,"MEAN_MOTION_DOT":7.638e-5,"MEAN_MOTION_DDOT":0},{"OBJECT_NAME":"GHOST-1","OBJECT_ID":"2023-054T","EPOCH":"2026-04-05T04:36:26.702208","MEAN_MOTION":15.94441006,"ECCENTRICITY":0.00030867,"INCLINATION":97.2982,"RA_OF_ASC_NODE":14.0557,"ARG_OF_PERICENTER":143.0909,"MEAN_ANOMALY":217.058,"EPHEMERIS_TYPE":0,"CLASSIFICATION_TYPE":"U","NORAD_CAT_ID":56195,"ELEMENT_SET_NO":999,"REV_AT_EPOCH":16785,"BSTAR":0.00084953765,"MEAN_MOTION_DOT":0.00316991,"MEAN_MOTION_DDOT":4.1069549e-5},{"OBJECT_NAME":"TELEOS-2","OBJECT_ID":"2023-057C","EPOCH":"2026-04-03T04:09:38.829312","MEAN_MOTION":14.96393483,"ECCENTRICITY":0.00010386,"INCLINATION":9.9901,"RA_OF_ASC_NODE":30.3672,"ARG_OF_PERICENTER":254.9175,"MEAN_ANOMALY":105.0924,"EPHEMERIS_TYPE":0,"CLASSIFICATION_TYPE":"U","NORAD_CAT_ID":56310,"ELEMENT_SET_NO":999,"REV_AT_EPOCH":16154,"BSTAR":1.4266151e-5,"MEAN_MOTION_DOT":8.54e-6,"MEAN_MOTION_DDOT":0},{"OBJECT_NAME":"SNIPE 4","OBJECT_ID":"2023-072B","EPOCH":"2026-04-05T06:53:45.462336","MEAN_MOTION":15.39559483,"ECCENTRICITY":0.00051686,"INCLINATION":97.5324,"RA_OF_ASC_NODE":299.1086,"ARG_OF_PERICENTER":216.2256,"MEAN_ANOMALY":143.864,"EPHEMERIS_TYPE":0,"CLASSIFICATION_TYPE":"U","NORAD_CAT_ID":56744,"ELEMENT_SET_NO":999,"REV_AT_EPOCH":15888,"BSTAR":0.00067021958,"MEAN_MOTION_DOT":0.0002634,"MEAN_MOTION_DDOT":0},{"OBJECT_NAME":"SNIPE 2","OBJECT_ID":"2023-072C","EPOCH":"2026-04-05T06:21:53.970336","MEAN_MOTION":15.43338677,"ECCENTRICITY":0.00039188,"INCLINATION":97.5325,"RA_OF_ASC_NODE":301.6646,"ARG_OF_PERICENTER":251.4566,"MEAN_ANOMALY":108.6256,"EPHEMERIS_TYPE":0,"CLASSIFICATION_TYPE":"U","NORAD_CAT_ID":56745,"ELEMENT_SET_NO":999,"REV_AT_EPOCH":15898,"BSTAR":0.00070236032,"MEAN_MOTION_DOT":0.0003131,"MEAN_MOTION_DDOT":0},{"OBJECT_NAME":"2023-072G","OBJECT_ID":"2023-072G","EPOCH":"2026-04-05T07:15:18.821952","MEAN_MOTION":15.46702653,"ECCENTRICITY":0.00033371,"INCLINATION":97.4985,"RA_OF_ASC_NODE":300.4458,"ARG_OF_PERICENTER":234.3048,"MEAN_ANOMALY":125.7891,"EPHEMERIS_TYPE":0,"CLASSIFICATION_TYPE":"U","NORAD_CAT_ID":56749,"ELEMENT_SET_NO":999,"REV_AT_EPOCH":15918,"BSTAR":0.00072571697,"MEAN_MOTION_DOT":0.00036295,"MEAN_MOTION_DDOT":0},{"OBJECT_NAME":"OTTER PUP","OBJECT_ID":"2023-084B","EPOCH":"2026-04-04T22:48:34.037280","MEAN_MOTION":15.95175967,"ECCENTRICITY":0.00033231,"INCLINATION":97.5732,"RA_OF_ASC_NODE":253.7717,"ARG_OF_PERICENTER":238.1813,"MEAN_ANOMALY":121.9139,"EPHEMERIS_TYPE":0,"CLASSIFICATION_TYPE":"U","NORAD_CAT_ID":56933,"ELEMENT_SET_NO":999,"REV_AT_EPOCH":15766,"BSTAR":0.00083524599,"MEAN_MOTION_DOT":0.0032411,"MEAN_MOTION_DDOT":4.3450532e-5},{"OBJECT_NAME":"GEISAT PRECURSOR","OBJECT_ID":"2023-084C","EPOCH":"2026-04-05T07:06:31.083840","MEAN_MOTION":15.33581607,"ECCENTRICITY":0.00050463,"INCLINATION":97.611,"RA_OF_ASC_NODE":233.9581,"ARG_OF_PERICENTER":230.1539,"MEAN_ANOMALY":129.9259,"EPHEMERIS_TYPE":0,"CLASSIFICATION_TYPE":"U","NORAD_CAT_ID":56934,"ELEMENT_SET_NO":999,"REV_AT_EPOCH":15635,"BSTAR":0.00031388255,"MEAN_MOTION_DOT":0.00010113,"MEAN_MOTION_DDOT":0},{"OBJECT_NAME":"BLACKJACK ACES-3","OBJECT_ID":"2023-084U","EPOCH":"2026-04-05T06:43:46.468416","MEAN_MOTION":15.18116778,"ECCENTRICITY":0.00019377,"INCLINATION":97.6093,"RA_OF_ASC_NODE":229.9828,"ARG_OF_PERICENTER":230.6016,"MEAN_ANOMALY":129.5046,"EPHEMERIS_TYPE":0,"CLASSIFICATION_TYPE":"U","NORAD_CAT_ID":56950,"ELEMENT_SET_NO":999,"REV_AT_EPOCH":15610,"BSTAR":0.00039646205,"MEAN_MOTION_DOT":8.022e-5,"MEAN_MOTION_DDOT":0},{"OBJECT_NAME":"BLACKJACK ACES-2","OBJECT_ID":"2023-084Z","EPOCH":"2026-04-05T06:52:00.595200","MEAN_MOTION":15.18134322,"ECCENTRICITY":0.0002126,"INCLINATION":97.6092,"RA_OF_ASC_NODE":230.0764,"ARG_OF_PERICENTER":161.9957,"MEAN_ANOMALY":198.1352,"EPHEMERIS_TYPE":0,"CLASSIFICATION_TYPE":"U","NORAD_CAT_ID":56955,"ELEMENT_SET_NO":999,"REV_AT_EPOCH":15611,"BSTAR":0.00052110594,"MEAN_MOTION_DOT":0.00010575,"MEAN_MOTION_DDOT":0},{"OBJECT_NAME":"BLACKJACK ACES-1","OBJECT_ID":"2023-084AA","EPOCH":"2026-04-05T06:36:12.369888","MEAN_MOTION":15.18147292,"ECCENTRICITY":0.00020224,"INCLINATION":97.608,"RA_OF_ASC_NODE":229.8465,"ARG_OF_PERICENTER":143.6621,"MEAN_ANOMALY":216.4751,"EPHEMERIS_TYPE":0,"CLASSIFICATION_TYPE":"U","NORAD_CAT_ID":56956,"ELEMENT_SET_NO":999,"REV_AT_EPOCH":10583,"BSTAR":0.0005217696,"MEAN_MOTION_DOT":0.00010592,"MEAN_MOTION_DDOT":0}]
